#dP2023 12 10  0  0  0.00000000      97 __u+U IGS20 FIT  IAC
## 2292      0.00000000   900.00000000 60288 0.0000000000000
+  119   C06C07C08C09C10C11C12C13C14C16C19C20C21C22C23C24C25
+        C26C27C28C29C30C32C33C34C35C36C37C38C39C40C41C42C43
+        C44C45C46E02E03E04E05E07E08E09E10E11E12E13E15E18E19
+        E21E24E25E26E27E30E31E33E34E36G01G02G03G04G05G06G07
+        G08G09G10G11G12G13G14G15G16G17G18G19G20G21G22G23G24
+        G25G26G27G28G29G30G31G32J02J03J04R01R02R03R04R05R07
+        R08R09R11R12R13R14R15R16R17R18R19R20R21R22R24R25R26
++         7  7  7  7  8  7  7  7  7  7  5  6  6  5  5  6  6
++         5  5  5  6  6  6  6  6  5  5  5  6  6  6  6  6  6
++         6  5  5  4  4  4  4  4  4  4  4  4  4  4  4  5  4
++         4  4  4  4  4  4  4  4  4  4  3  3  3  3  4  3  3
++         5  3  3  3  3  3  3  3  4  3  3  3  4  3  3  3  3
++         3  4  4  3  3  3  3  3  9  9  9  8  6  6  7  6  7
++         7  7  7  7  7  6  6  7  6  6  8  8  7  7  7  8  8
%c M  cc GPS ccc cccc cccc cccc cccc ccccc ccccc ccccc ccccc
%c cc cc ccc ccc cccc cccc cccc cccc ccccc ccccc ccccc ccccc
%f  1.2500000  1.025000000  0.00000000000  0.000000000000000
%f  0.0000000  0.000000000  0.00000000000  0.000000000000000
%i    0    0    0    0      0      0      0      0         0
%i    0    0    0    0      0      0      0      0         0
/* INFORMATION & ANALYSIS CENTER (IAC)            FINAL DATA
/* S/V CLOCKS ARE ALIGNED TO GNSS TIME                      
/* G:C1WC2W R:C1PC2P E:C1XC5X C:C2IC6I J:C1CC2S             
/* PCV:IGS20_2290 OL/AL:FES2004  NONE     YN ORB:CoN CLK:CoN
*  2023 12 10 16 15  0.00000000
PC06  -5250.201494  24777.064771 -33642.290697    201.407094
PC07 -16507.911349  34174.415545  18272.628812   -453.127395
PC08  -4072.857177  40263.729375  12234.955872    189.100253
PC09   6080.311841  28526.615969 -29820.193264   -199.762209
PC10  -8063.239851  33683.044801  24025.474637    -48.354851
PC11 -25621.978297  -9548.556665  -5460.278195    299.484907
PC12 -10768.237128 -16006.051077 -20115.128654    830.350804
PC13   -230.172042  41758.305688   7023.978431    393.962420
PC14 -16177.313798  -4447.881601  22300.584179   -276.043104
PC16  -7227.580780  23221.510067 -34184.552479   -219.128334
PC19  20588.566261  -5122.716097 -18115.669485   -954.552049
PC20  10536.235701  11655.348763 -23055.075215     41.204258
PC21   6893.776515 -22894.022769  14414.117263   -968.141122
PC22  19429.499248 -19890.056570  -2488.555949   -191.920618
PC23 -11713.715428  13477.532378 -21451.587400   -806.159594
PC24 -13744.307938 -23107.278394  -7438.365125    679.356455
PC25 -17957.550229  -5554.319192 -20632.575003    275.004945
PC26  -2687.475461 -26160.498774   9259.852400   -218.278529
PC27    949.253939  16308.540173  22608.406108    240.270616
PC28 -17287.448458  10325.744474  19328.818304    181.720829
PC29  27648.687400   2237.229597  -3046.465348    212.724949
PC30  19691.244953  13440.964966  14483.231240    -10.100873
PC32  -6809.283739  22966.754441 -14299.833514   -541.496623
PC33 -20532.407770   5101.339449  18192.599988   -942.054907
PC34 -20891.856655 -12874.034616 -13313.362688    321.950096
PC35  16827.946986 -11066.187844 -19308.002733    483.793142
PC36  17895.120121   6905.789264  20288.836751    -98.652185
PC37   1634.266910  26083.606977  -9823.290604   -919.056681
PC38  -8662.791659  36728.646379  19040.401543    123.176411
PC39 -11172.033321  21389.924349 -34525.772667     -6.031194
PC40 -24105.241853  29334.694999  18097.454465    -47.315526
PC41 -19676.243601  19515.051154   3314.668991   -873.039258
PC42  -9316.729389 -13035.418214  22888.743221   -483.398054
PC43 -27684.274037  -2884.650262   2155.222481     51.752840
PC44  -1367.307520 -16400.674245 -22548.137661    318.701328
PC45  11352.622832 -13875.305189  21369.969755    -53.753121
PC46  14132.911555  22572.939703   8400.548205   -106.436131
PE02  15465.602369 -20684.303560  14436.535627     85.495636
PE03  23732.883383 -14409.510946  10259.443818    -79.202172
PE04  -5138.555123  18145.593249 -22815.313982   -276.969756
PE05  28366.659069  -2350.127097  -8118.663249   4699.171488
PE07 -16053.211858 -11431.268448  22082.913565    -92.319958
PE08   5838.805454 -18070.351419  22699.905190   -190.095385
PE09  15906.687752  11369.176599 -22230.381407   -258.090993
PE10  13426.192662  23492.600248  12011.183948   -585.321817
PE11  20433.131534  21327.097329   1879.182179   3259.305266
PE12   5001.884027  21998.186795  19160.397135   -813.013474
PE13 -20101.970662 -21573.339947  -2592.812494    -19.666860
PE15  -4604.518740 -21771.280431 -19507.037127    -73.994465
PE18 -16524.406595 -12459.564067 -18562.537018     79.148517
PE19 -25245.320090  13128.543730  -8168.653558  -1042.782650
PE21 -17322.731722   1274.876577 -23972.537327   -568.206641
PE24   8874.460482  20289.324591  19638.378417   -478.405714
PE25  17254.081029   -811.700013  24038.973123     -2.169823
PE26 -23534.631372  -8111.217148  16023.571423    305.712546
PE27  -9218.578994 -19811.537468 -19960.277658   -220.811644
PE30   4514.350405 -28977.901517  -3943.398388   -730.916456
PE31  -4227.577918  28996.059785   4232.733843    -11.476693
PE33 -13826.819889   8715.025392  24687.029805      3.944258
PE34  13359.603731  -9231.662277 -24745.980990    -82.612814
PE36  23598.384059   8778.975767 -15551.218920   -155.813164
PG01 -21369.541930 -13369.651000   8558.238895    163.793534
PG02 -21763.237832 -15284.289234   2634.985871   -517.442374
PG03 -13000.217306  -7750.580640  21692.018219     44.827970
PG04 -23588.409685  -2631.718977  12062.325840    235.871132
PG05   7619.292508  19592.061304 -16357.448450   -153.608342
PG06   -864.421169  17528.826158  19976.014470    482.045898
PG07 -18183.750012   1382.815682 -18991.644926     -8.440647
PG08 -18100.899119  -7591.007022 -18160.053744   -156.278785
PG09 -25608.686023   6972.757373   1587.049143     22.630122
PG10  10781.244552 -22789.101510  -7604.902027    -64.751802
PG11   8986.709145  21813.681914  12273.837068   -495.315664
PG12  12462.306623   9392.943516  21223.046480   -456.012295
PG13   7762.341185  13793.447025 -21563.298209    604.222942
PG14 -13453.290128  20147.980482 -10656.681029    267.074787
PG15  18596.002864   6440.319630 -18419.481913    105.575145
PG16  -1303.311993 -23305.490761 -12548.025433   -406.703447
PG17 -19823.467056  13164.015071  12373.631434    722.199938
PG18  16756.922083  -2917.236681 -20433.343474   -502.623651
PG19 -11914.276909  14814.428834  18206.660414    410.600823
PG20   1368.187460  26252.094699  -4371.501457    397.337183
PG21 -20723.757269 -17372.343734   -900.836211    141.930587
PG22 -10517.549871  24321.774738  -2971.570193     68.494342
PG23  14958.027521 -12845.698741 -17688.416564    113.652243
PG24  21660.199866  15631.606107   1631.071186   -390.409261
PG25  15912.754755  -4319.029448  20437.363239    480.934315
PG26   2433.202440 -26138.173984  -2548.052429    210.319589
PG27  -4221.603519 -14653.819115 -22003.400596    -81.239984
PG28   2938.383112 -16589.501786  20507.512350    -66.609544
PG29  26215.261981  -4010.761857   2207.840341   -609.864603
PG30 -10513.303250  11683.760384 -21285.027941   -458.983277
PG31  -4534.449123 -20451.510578  15873.564417   -226.487710
PG32  15917.190446 -15484.020926  14598.661465   -594.945390
PJ02 -24709.829699  31400.345097  -8698.155187     -0.499199
PJ03 -26246.681979  23110.060646  28756.587906    -11.421822
PJ04 -32597.554939  26830.740493   5230.942723     73.915287
PR01 -10717.698014  -5010.728446  22595.671698     71.797550
PR02 -20439.214324   8520.905120  12767.981924    -22.338070
PR03 -18279.910997  17299.089808  -4321.927028     90.642771
PR04  -6404.902391  16104.366278 -18699.621049    214.630981
PR05   9012.253048   6453.759458 -22963.232408    123.575398
PR07  17786.197692 -17461.829937   5316.236412     71.019068
PR08   5942.138953 -16132.020573  18882.979969    -73.626715
PR09  11510.153460    165.667083  22773.569971    157.949388
PR11  -2259.037109 -25084.287844   4099.237592   -220.074654
PR12 -10013.793044 -18409.919453 -14509.706812     34.313259
PR13 -11522.049043  -2953.900383 -22582.798802    -42.182251
PR14  -5902.264309  17204.664673 -17869.664385     25.722678
PR15   2760.988869  25220.250731  -2621.400402     84.057960
PR16   9967.807686  18573.159616  14346.531743     21.401252
PR17 -11551.822726   6185.149149  21892.076571     42.313526
PR18   5284.160443  12643.229186  21525.756299    116.179387
PR19  18206.072249  13675.328206  11510.925001   -257.807589
PR20  23019.373625   5698.892759  -9330.599038   -104.926130
PR21  11096.824705  -6292.232182 -22086.140372    -59.949131
PR22  -5874.139643 -13386.122445 -20874.908180     97.605648
PR24 -23150.591331  -4243.380436   9837.578473    -35.423417
PR25   6528.547815 -16434.213674  18408.252272    -12.892389
PR26  11936.003492  -5941.210184 -21740.015159     -0.295321
EOF
